{"type":"FeatureCollection","features":[{"type":"Feature","properties":{"id":"barents","name":"巴伦支海","mask_value":8,"grid_cells":2632,"definition":"NSIDC Meier et al. 2007 sea-ice region mask; 25 km cells"},"geometry":{"type":"MultiPolygon","coordinates":[[[[21.370622269343183,77.95174830090411],[21.80140948635181,77.74225130615595],[20.82089285331083,77.65055125255107],[21.250505507133248,77.44204858031729],[22.217594269518315,77.5321689844845],[22.61986494804043,77.32153666178844],[23.587030525128235,77.40660292209779],[23.198590513648185,77.61872737963185],[24.193208987288774,77.70164586521898],[23.805943518457724,77.91476227488562],[23.40468955103232,78.12739110831819],[22.98871680208063,78.33949904265982],[21.948699083526982,78.25194721735733],[21.501434324047906,78.4618507751696],[21.037511025421825,78.6711041411166],[20.556045219583464,78.87966404507063],[20.05609473657542,79.0874841745716],[19.53665493812839,79.29451491010052],[20.658910063307495,79.39088840869768],[21.80140948635181,79.48315415351934],[22.28558764683277,79.27240055542495],[23.4286928087454,79.35866477507739],[23.875280853927514,79.14553069073007],[25.016893478100027,79.22586710398022],[26.175289981759928,79.3018967483949],[25.76932762433872,79.51828193115708],[26.965714432870147,79.5914318688959],[26.565051177077994,79.80892582403638],[27.801458779934134,79.87901049296885],[29.054604099077153,79.94434801493678],[30.323606862549987,80.00484325608389],[31.6075022462489,80.06040591510889],[32.9052429229879,80.11095111731203],[34.21570213243741,80.15639999662453],[35.53767779197439,80.19668025721958],[36.86989764584403,80.23172670609526],[38.21102542556122,80.26148174802346],[39.559667968994496,80.28589583449515],[39.42780219603621,80.51406404960761],[40.815083874881594,80.53356314504778],[42.20729763428672,80.5475161294248],[43.60281897270362,80.55589798809768],[45.0,80.55869362346495],[45.0,80.32945365456433],[46.36392753160292,80.32672543908336],[46.33221985386964,80.09762425362683],[47.66300076606714,80.08963690227634],[48.990913098429786,80.07633921048787],[49.085616779974885,80.30492785876733],[50.440332031005504,80.28589583449515],[50.5721978039638,80.51406404960761],[50.71059313749964,80.74225215813154],[52.1250163489018,80.7166161800424],[53.53076560994814,80.68538074377074],[54.9262455066517,80.64860292052084],[56.30993247402022,80.60634893953184],[57.68038349181982,80.55869362346495],[57.38075692880719,80.334912438101],[58.706961004079815,80.28318007296734],[60.01836063115067,80.22632661190133],[60.376251248826186,80.44751748254066],[61.69924423399363,80.38418348697498],[63.00416160591339,80.31582040361008],[62.59242456218159,80.09762425362683],[62.19854122006586,79.87901049296885],[63.43494882292201,79.80892582403638],[63.034285567129864,79.5914318688959],[64.23067237566129,79.51828193115708],[63.82471001824007,79.3018967483949],[64.98310652189998,79.22586710398022],[64.5731258304102,79.01057680047859],[64.17900802581072,78.79482366437166],[65.2825590889166,78.7176274108909],[64.88516511385545,78.5029316527661],[65.95577673063218,78.42318949786507],[65.55604521958347,78.20953559453505],[65.1706534118504,77.99541132463676],[66.19405648154229,77.91476227488562],[65.80679101271124,77.70164586521898],[66.80140948635182,77.61872737963185],[66.41296947487176,77.40660292209779],[67.38013505195958,77.32153666178844],[66.99112991717713,77.11038754335314],[67.9321004375898,77.02328697282857],[67.54306100005789,76.81309611944332],[66.61477894278624,76.89875287026624],[66.25050550713325,76.68666206288701],[65.89776549883887,76.47414285251918],[64.98310652189998,76.5536732527872],[64.6538240580533,76.33946744643012],[63.74134044519273,76.4143302167332],[63.43494882292202,76.19857695151757],[62.52556837372287,76.26883481198143],[61.606980578617005,76.33563978836445],[61.33604288971847,76.11738924817566],[60.42216131873868,76.1796519298421],[60.17291534552527,75.96019519611825],[59.2645122980799,76.0179936618273],[59.03624346792648,75.7974529843673],[58.134022306396325,75.85086906032882],[57.92599912470595,75.62936088360503],[57.724355685422374,75.40777471899364],[56.84207611532777,75.45611447717367],[56.659292653522996,75.23370419382262],[56.4819913547481,75.01125722351964],[56.30993247402022,74.78878170397834],[56.14288985833932,74.5662853934139],[55.98065001017354,74.34377569686282],[55.15426658020026,74.38534734734121],[55.007979801441344,74.16221896733977],[54.86580694308437,73.93910765834637],[54.05788812861766,73.97633645831804],[53.930590100419,73.7527107769253],[53.80679269443531,73.5291278618242],[54.593134262730345,73.4929592882004],[54.46232220802562,73.26993317660947],[53.68635458123665,73.30559251447168],[53.569141879837645,73.08210936114635],[53.455027677177455,72.85868286399119],[52.69605172201657,72.89041210869117],[52.594643368591456,72.66661391690484],[52.495857639729856,72.44289170192307],[52.399594659887114,72.21924908546362],[52.305759533310834,71.99568958132758],[51.58194465517802,72.02293471081596],[51.49934627965457,71.79910572837734],[51.41878673023879,71.57537511706208],[52.1250163489018,71.54883346280823],[52.82907651005961,71.51954527172559],[52.73359809902286,71.29662847753224],[52.64040676102676,71.07379920286294],[53.32565033042684,71.04258261765267],[54.008503742025155,71.00871386457149],[53.901716032892,70.78678369852612],[54.57422788509183,70.75072899216838],[55.244087446458636,70.712084115972],[55.91112838428339,70.67086577565651],[56.5751888173962,70.62709164477555],[57.23611150941633,70.58078033100523],[57.0947570770121,70.36142447797462],[57.74528947313286,70.31318031671015],[58.3924977537511,70.2624657638357],[58.240519915187214,70.0443061956948],[58.877529803208006,69.99176633519113],[59.51105950016907,69.9368230311722],[59.34933204294713,69.71991727658128],[59.97287576678693,69.66325222605884],[60.59281093926635,69.60425051000617],[60.42216131873868,69.38864816745692],[60.25511870305778,69.17301255931864],[60.85936626660569,69.11306737967405],[60.68999292908387,68.8980712110299],[60.52411099675427,68.68304302344296],[59.93141717813756,68.74167003529864],[59.77455027504658,68.52597678325616],[59.62087398863166,68.31027761534466],[59.03624346792648,68.3654515970543],[59.18429424827082,68.58175787281048],[59.335435419520124,68.79807009692246],[58.73626830562258,68.85222368308989],[58.134022306396325,68.90411185342349],[57.9946167919165,68.68662738217229],[57.395406833758464,68.73567961752272],[57.2647737278924,68.51768248229281],[56.668774000368956,68.56393819082632],[56.07020257793936,68.60792269816451],[55.469174257711416,68.64962063593977],[55.35905248808372,68.43021276144292],[54.761774775042255,68.46917160149317],[54.659893078442344,68.24941229712313],[54.06650273981619,68.28567493458269],[54.16234704572172,68.50583954018225],[53.560889571164616,68.54020372451973],[53.65254179111473,68.76085174205632],[53.04289423350532,68.79326373103494],[52.43140797117251,68.82332300777014],[52.35237935989236,68.6019730827629],[51.74557964748282,68.62935627137088],[51.67446904711758,68.40781673331779],[51.07245640720771,68.43257171573455],[50.46909497011193,68.45499585002158],[50.41186915231704,68.23305727642068],[50.355825042855194,68.0112569870088],[49.76364169072618,68.03089898203687],[49.71475451870495,67.80902402083183],[49.12759170251174,67.82618093389546],[48.53955916854996,67.84106205188641],[48.503531644784466,67.61898529337985],[47.92072152100039,67.63144825399723],[47.89126959622056,67.40939227631696],[47.86240522611175,67.1874960305124],[47.83411101630651,66.96576112846378],[47.267954535905844,66.97563912917809],[47.24574256589507,66.75396305870053],[46.68468431789629,66.76156812037787],[46.123302714075436,66.76700199490091],[46.13442163097701,66.98881708718044],[45.567266409857936,66.99211288003458],[45.57293869768349,67.2141310840351],[45.0,67.21524162331157],[45.0,67.4374387671257],[45.0,67.65980158850346],[45.58463052070518,67.65866669579643],[46.16913932790742,67.6552623977455],[46.181188913326636,67.87773929669918],[46.771469740034085,67.87200408051649],[46.789910608246075,68.09457883130027],[46.193489423982044,68.10037796599941],[46.20604877921997,68.32317691751075],[45.60309119438054,68.32669636550843],[45.6095065766752,68.54969407259736],[45.0,68.55088068826429],[44.390493423324806,68.54969407259736],[43.781124764868714,68.54613465525881],[43.793951220780045,68.32317691751075],[44.396908805619475,68.32669636550843],[44.40319054877082,68.1038582541136],[44.40934278535333,67.88118120946585],[44.415369479294824,67.65866669579643],[43.83086067209259,67.6552623977455],[43.84266693187049,67.43294874945731],[43.8542371618249,67.21079982435587],[44.427061302316524,67.2141310840351],[44.432733590142064,66.99211288003458],[44.43829466743345,66.77026299513538],[44.44374777291933,66.54858285901825],[44.44909602078143,66.32707389436338],[43.89829388479363,66.32388053411955],[43.34769532234869,66.31855933052154],[42.797401838234194,66.31111187726769],[42.77603875961453,66.532453469296],[42.22083313592792,66.52278173582549],[42.24751459973132,66.30154040251243],[41.698134325565,66.28984776585447],[41.72951207681644,66.06889421450332],[41.18592516570965,66.05522563877297],[40.6430249941537,66.03946499780297],[40.68397248013438,65.81897790579467],[40.14690361300763,65.80131106345007],[40.192046036969536,65.58116522796739],[39.660763196262415,65.56163546290081],[39.70991879462873,65.34184642538052],[39.758180053020446,65.12221757079848],[40.279863068956445,65.14136077241025],[40.322582141118254,64.92170571891036],[40.36453657309736,64.70221779015131],[39.8521151758637,64.68344784027228],[39.34051815983752,64.66272034756624],[38.829824904970394,64.64004073013108],[38.77417093557423,64.85891681886078],[38.25994390205306,64.83404945708548],[37.74680538727468,64.8072237505338],[37.680980624409564,65.0257460117666],[37.16447489351145,64.99668581920804],[37.09283729704155,65.2150654394908],[36.57303097851933,65.18373617581518],[36.649247467668594,64.96566341634328],[36.724107172924796,64.74772597754662],[36.797645755374425,64.52992639514252],[36.86989764584403,64.31226715709137],[37.371850331419296,64.34239981183808],[37.8749836510982,64.37062471140466],[37.937397329584236,64.1525523647522],[37.99873244250467,63.93463435969378],[37.504142360270144,63.9069433296982],[37.01067323360311,63.87737943726883],[36.51839420597068,63.84594991194832],[36.44444175658712,64.06302202993379],[35.949278322816276,64.02941843862527],[35.86982351772131,64.24630943059935],[35.78897345918333,64.46333272131515],[35.28674897505972,64.42718021970973],[34.78602701492951,64.3891359639794],[34.69515353123398,64.60557210722796],[35.20015133113237,64.64398336767543],[35.1120111844222,64.86090740437947],[35.02228737984943,65.07794935016169],[34.50852298766841,65.03878534266981],[34.41267868176288,65.2555560849568],[34.31508759999729,65.47243188989667],[34.83791680599925,65.51237472232647],[34.7431801583036,65.7297518535298],[34.64667995607056,65.94723429787209],[34.54836705601131,66.16481872307362],[34.01134890350603,66.12365567995987],[33.90627698844216,66.34091732408098],[33.36636600105956,66.29728779275577],[33.25436657471205,66.5141883489781],[33.14022087905202,66.73116438662993],[33.69006752597979,66.7756991220829],[34.242032911609996,66.81814934874629],[34.34609740006152,66.60027978627667],[34.89496363496204,66.64021609736173],[34.99202019855867,66.42202890177819],[35.537677791974374,66.45948732603429],[35.62790729142091,66.24102059150016],[36.170255332090946,66.27603745448121],[36.71420297604626,66.30898451141765],[37.25965884116208,66.33985212530919],[37.33319573818582,66.12049256341923],[37.8749836510982,66.14897742534649],[38.418055344821994,66.17538610108562],[38.48019824834302,65.95560261314976],[39.01940047523656,65.9796796264799],[38.96231747857712,66.1997108859684],[39.50767544287256,66.22194465364012],[40.054033452895844,66.24208086534117],[40.00625601417661,66.46270112779182],[40.55875881056719,66.48092187923382],[41.11209043916693,66.49701203347595],[41.07409229631602,66.71814767413144],[41.03534527714389,66.93944265652279],[41.600285840876744,66.95369437134688],[41.56636963754948,67.1752997562985],[40.99582705929061,67.16089524189695],[40.955514425818905,67.38250367211032],[40.91438322002513,67.60426616902981],[40.87240829748828,67.82618093389546],[40.28524548129506,67.80902402083183],[40.23635830927382,68.03089898203687],[39.644174957144806,68.0112569870088],[39.588130847682976,68.23305727642068],[38.990994042505484,68.2108826537707],[38.927543592792304,68.43257171573455],[38.32553095288243,68.40781673331779],[38.25442035251718,68.62935627137088],[37.64762064010765,68.6019730827629],[37.5685920288275,68.82332300777014],[36.95710576649469,68.79326373103494],[36.86989764584403,69.01438211120566],[36.2538377374448,68.98159891447673],[36.158185439808335,69.2024419277681],[35.53767779197439,69.16688712186955],[34.91940201245768,69.12895297907832],[34.808498149972316,69.34903514963028],[34.186122486375034,69.30827033812645],[33.566318734573336,69.26512990816126],[33.439869205782244,69.48430683631206],[32.816343414012614,69.43828079377558],[32.680554743363395,69.65696664671786],[32.54175355999511,69.87568220488684],[31.908106935653162,69.82615260805842],[31.277702866866463,69.77422430144236],[30.650667957052864,69.71991727658128],[30.488940499830942,69.9368230311722],[29.859016164923098,69.87949762919695],[29.687181639193703,70.09570879380446],[30.323606862549987,70.15370834331988],[30.96375653207353,70.20930134190725],[30.80144597613683,70.42682263958602],[30.6354175503028,70.64432330783232],[29.981639368849333,70.58738896643324],[29.804751473180126,70.80416928765939],[29.14807184571305,70.74406014380094],[28.96005669395034,70.9600562185061],[28.300755766006382,70.89673078740802],[28.10135130596177,71.11187656648634],[27.439727948199316,71.04529491797616],[27.64597536373868,70.83094937891671],[26.995838394086622,70.76273917131125],[26.78290480217516,70.97626061911717],[26.13100054493858,70.90480235232421],[25.906507999514393,71.11732290002242],[25.253163394573882,71.04258261765267],[24.605123917951616,70.96545604304244],[23.96248897457819,70.88597438462479],[24.205885044496352,70.67617896726487],[23.57470620191262,70.59532252097871],[23.325350880975858,70.80416928765939],[22.69379494509236,70.72007278663885],[22.067899562410222,70.63371725870034],[22.328656378019154,70.42682263958602],[21.713935081776434,70.3392424186876],[21.104838584929634,70.24948461798807],[21.370622269343183,70.0443061956948],[20.77225468204583,69.95341665652587],[20.17945866451092,69.86042831428458],[19.59228189105153,69.76537288540064],[19.311856564352652,69.96746900545844],[19.02560603756868,70.16920577473607],[18.434948822922006,70.06998962240804],[18.72578784527257,69.86932489994793],[18.14557865948141,69.76916583685566],[18.434948822922006,69.56918818225672],[17.864860377923126,69.46812278631566],[17.300527191945,69.3651179946252],[16.74197038529311,69.26020577188942],[17.037767795625633,69.06305240100566],[17.327921777241233,68.86548420446725],[16.782644145270712,68.76085174205632],[16.242879102697582,68.65439177007885],[15.945395900922861,68.84981365144192],[15.642246457208724,69.04478664377402],[15.101098161385433,68.9343433370023],[14.56576424655659,68.82211974471635],[14.250032697803599,69.01438211120566],[13.928341939153693,69.20612377834678],[14.470294100065882,69.3206141082006],[14.145795494102986,69.51297408325784],[13.815025341261611,69.7047898657508],[13.477822753241327,69.8960401715764],[14.036243467926484,70.0122519677062],[13.69587650440903,70.20412280316093],[13.348727113287376,70.39540222909989],[13.920960364920754,70.51219326006049],[13.570434385161489,70.70409899544588],[13.212746878335249,70.89538588199989],[12.84770485871766,71.0860294059659],[13.438188158350659,71.20469397386609],[14.036243467926484,71.3214097594834],[13.671307132195828,71.51397218342578],[13.29857033049428,71.70588229853598],[12.917812843933962,71.89711357403654],[13.535856369134246,72.01576068294357],[13.150948680944714,72.20763744377024],[12.757532160876675,72.39880246715684],[13.3924977537511,72.51811412144721],[12.994616791916503,72.70993166279158],[12.587693381648794,72.9010023628622],[13.240519915187212,73.02100524771431],[12.828782871455427,73.21273582743025],[12.407418527400745,73.40368201632532],[11.976132444203357,73.59381060988022],[12.652556500557967,73.71601923736155],[12.21571913413085,73.90680833535136],[12.90740867126584,74.0282847093732],[13.609731895812207,74.14746083340374],[13.172553423326892,74.34045496145409],[13.891191171454864,74.45879651298569],[13.448615051686517,74.65250496613255],[12.994616791916503,74.84536924030594],[13.736268305622565,74.96440798274992],[13.276397042315972,75.15799796081211],[12.804266065286754,75.35069831163962],[13.570434385161489,75.47046954097488],[13.091893064346849,75.66390760186185],[12.600159826080668,75.85640682941788],[13.3924977537511,75.97694990910122],[12.893744044882164,76.17019949388539],[13.706961004079805,76.28979429474755],[13.201087175705586,76.483815733696],[14.036243467926484,76.60240736158653],[13.523160650416015,76.79722336877722],[12.994616791916503,76.99103120623307],[13.861027563021146,77.11038754335314],[14.743562836470742,77.22679190594877],[15.255118703057784,77.02934415468495],[15.751173663453027,76.83097661269709],[16.2323506611562,76.63173611622518],[17.10272896905237,76.73984935667997],[16.630953706721424,76.94079634371542],[17.52556837372287,77.04753325669411],[17.049030972109822,77.24938218166287],[17.969139740157015,77.35466303670357],[17.48799737614854,77.55743893482526],[18.434948822922006,77.66117799632922],[17.94940299291387,77.8649069010568],[18.92464441605123,77.96701182660638],[18.434948822922006,78.17172075092681],[19.44003482817619,78.27209191713388],[18.94650468950905,78.47780881558758],[19.983106521899973,78.57633856164325],[20.462271523422213,78.36883336363078],[20.924501744921166,78.16062235159323],[21.370622269343183,77.95174830090411]],[[56.04094018032374,80.38143946481064],[55.78429786756261,80.15639999662453],[57.0947570770121,80.11095111731203],[57.38075692880719,80.334912438101],[56.04094018032374,80.38143946481064]],[[51.95295746817392,80.4890535559384],[51.7889745744388,80.26148174802346],[53.13010235415599,80.23172670609526],[53.32565033042684,80.45857577495275],[51.95295746817392,80.4890535559384]],[[58.3924977537511,80.06040591510889],[58.09189306434685,79.83741931613031],[59.34933204294713,79.78309300236847],[59.67639313745001,80.00484325608389],[58.3924977537511,80.06040591510889]],[[48.144957464698024,69.19017419966968],[48.11084065349077,68.9670464379018],[48.07745539942439,68.74406671741194],[48.69138598645128,68.7308886067714],[49.30446896050799,68.71532593636361],[49.35107795157389,68.93797428747477],[49.96974072811031,68.91982633829525],[50.024075258539554,69.14240490505847],[50.07960786001457,69.3651179946252],[49.44738485009049,69.3836920273602],[48.81407483429035,69.39980420867408],[48.179830119864235,69.41344826954574],[48.144957464698024,69.19017419966968]]],[[[46.36392753160292,80.32672543908336],[46.397181027296384,80.55589798809768],[47.79270236571328,80.5475161294248],[47.72631099390626,80.31854548983357],[46.36392753160292,80.32672543908336]]],[[[15.708637829015744,68.54613465525881],[16.242879102697582,68.65439177007885],[16.53483785734516,68.45853883299984],[16.004040485881614,68.35135001276545],[15.708637829015744,68.54613465525881]]],[[[19.29004621918874,69.4668784317581],[19.010766416166994,69.66828220305172],[19.59228189105153,69.76537288540064],[19.867045007086663,69.56293390368494],[19.29004621918874,69.4668784317581]]],[[[22.583852520656354,70.21966280141017],[22.328656378019154,70.42682263958602],[22.948937280923275,70.51219326006049],[23.198590513648185,70.3040673510753],[22.583852520656354,70.21966280141017]]],[[[25.301378625419726,70.33272340792476],[25.074419341815673,70.54381654236815],[25.709953780811272,70.61914411937914],[25.930806462651876,70.40717853076929],[25.301378625419726,70.33272340792476]]],[[[26.995838394086622,70.76273917131125],[27.204011076069627,70.54909246211918],[26.565051177077994,70.47931089414561],[26.350461245948598,70.69212796150929],[26.995838394086622,70.76273917131125]]],[[[32.47119229084849,66.90112097017372],[33.02386755579664,66.94821178984456],[33.14022087905202,66.73116438662993],[32.59258147259926,66.68455841973957],[32.47119229084849,66.90112097017372]]]]}},{"type":"Feature","properties":{"id":"kara","name":"喀拉海","mask_value":9,"grid_cells":1431,"definition":"NSIDC Meier et al. 2007 sea-ice region mask; 25 km cells"},"geometry":{"type":"MultiPolygon","coordinates":[[[[88.9190758133393,81.36542123756185],[90.0,81.5292654495048],[91.0809241866607,81.36542123756185],[92.12109639666146,81.19866460709325],[93.12213046211572,81.02916297106795],[94.08561677997487,80.85707407807368],[93.01278750418335,80.70524548924283],[91.97493401088197,80.55030924182402],[92.91083782616775,80.38143946481064],[91.90915243299638,80.22632661190133],[90.93919094573559,80.06836930595325],[91.8476102659946,79.90248232761104],[90.90938044919913,79.74446826097225],[91.78991060824606,79.578782396482],[92.64254529406472,79.41076815249394],[93.57633437499736,79.56362369700342],[94.39870535499553,79.39088840869768],[95.19442890773482,79.21609675257754],[95.96448710125313,79.03935234320141],[96.70983680775696,78.86075342296702],[97.4314079711725,78.68039311563176],[98.36588612403258,78.8183242910921],[99.32359177813802,78.95325588365633],[100.30484646876602,79.08507242412675],[100.98065001017355,78.89623789912693],[100.00797980144135,78.76668940045944],[100.66978280449668,78.57864032522004],[99.72757855140162,78.44819045741286],[100.37584492005105,78.26089603434995],[99.46232220802563,78.12960355057335],[100.0975043840753,77.94303520811009],[101.00354085174949,78.07221710447129],[101.92932217723833,78.19840066035523],[102.52880770915151,78.00635262093468],[103.1092081981543,77.81310759296053],[103.67130713219584,77.61872737963185],[102.77124256490144,77.49855758922168],[101.88865803962798,77.37541254786105],[102.44999650780659,77.18377911407973],[101.59217541029106,77.05967399622489],[100.75096699318807,76.93277728399495],[101.30993247402021,76.74379793926371],[100.49147701233159,76.61608583491108],[101.04094018032374,76.42781242498008],[100.24408744645864,76.29933232347454],[99.68878656036681,76.48575117052556],[98.901716032892,76.3528730134313],[98.13010235415598,76.21752893185423],[97.37376636133023,76.07979492652788],[96.63251461513848,75.9397453745198],[96.04409216224111,76.11738924817566],[95.44033203100551,76.29360868041361],[94.70785224437223,76.14754095022155],[93.9909130984298,75.9993219208501],[93.3664606634298,76.17019949388539],[92.66300076606714,76.0179936618273],[93.28924267849183,75.84902363779196],[92.6025622024998,75.69671615271467],[91.97493401088197,75.86379402864958],[91.30195267257888,75.70766974611821],[90.6437457141754,75.54968786980524],[90.0,75.71132288476808],[89.35625428582463,75.54968786980524],[88.7269699799433,75.38634384616195],[88.11181199325908,75.22135235814021],[87.51044707800085,75.05477289055139],[86.92254460057563,74.88666291701827],[86.34777721969367,74.71707795050128],[85.78582147726597,74.54607159551597],[86.42366562500267,74.39700821143957],[87.04922089099367,74.24612242549767],[86.49646835521555,74.0771478626261],[85.95551442581892,73.90680833535136],[85.42607874009914,73.73515178509716],[84.80557109226521,73.88101784440937],[84.28940686250037,73.70646182712998],[83.78436410029735,73.53070230669879],[83.15722658736905,73.6714683476654],[82.66562119858331,73.4929592882004],[82.03038960567865,73.63021390567816],[81.55247275209153,73.44904036533764],[80.90972307917767,73.58274821412617],[80.44571032759825,73.39899722888333],[79.99202019855868,73.21427899752332],[80.62790729142091,73.0836399517889],[81.2538377374448,72.95102155558952],[80.80334410837109,72.76836838743965],[80.36246188706906,72.58477297875677],[80.9723870492849,72.45319610051503],[81.57303097851934,72.31973576430866],[82.16447489351145,72.18443827969973],[82.74680538727468,72.04734921546235],[82.30394827798344,71.86864743748067],[81.86989764584402,71.68898692162892],[81.29262972847961,71.8232003428375],[80.70669140060288,71.95561862743939],[80.11201118442222,72.08619793369901],[79.50852298766841,72.21489377605052],[78.89616656336392,72.3416610485192],[78.27488798483492,72.46645405131903],[77.64464013491649,72.58922652078469],[77.24246783912334,72.39880246715684],[76.84905131905529,72.20763744377024],[77.47119229084849,72.08763849574018],[78.08485292873497,71.96562748454274],[77.69198418257207,71.77645944307145],[77.08218715606604,71.89711357403654],[76.46414363086576,72.01576068294357],[76.08750532347997,71.8232003428375],[76.70142966950573,71.70588229853598],[76.32869286780416,71.51397218342578],[76.93068210371783,71.39596531112097],[77.52489028779105,71.2760041895517],[78.11134196037203,71.15412971706552],[78.6900675259798,71.03038240555453],[78.31063082456082,70.84301352070953],[77.7352262721076,70.96545604304244],[77.15229514128235,71.0860294059659],[76.56181184164936,71.20469397386609],[75.96375653207355,71.3214097594834],[75.35811545876663,71.4361364545223],[75.71890426402918,71.62998355240452],[75.10130456559969,71.74395784171381],[75.46554491945989,71.93847431815371],[75.83783194468725,72.13235716890046],[75.20323775494265,72.24685906989842],[74.83553910026156,72.05166132413298],[74.47588900324574,71.85585318892403],[73.84266013541209,71.96562748454274],[73.49563861824498,71.7679748122842],[73.15619144827258,71.56978401102909],[72.82409638425325,71.3710780348229],[73.44292862436335,71.26501449396461],[74.05460409907714,71.1568592088012],[73.72032679786948,70.9600562185061],[74.32047587758076,70.85106081049193],[73.98882252119154,70.65493560209077],[74.57783868126134,70.5451353781498],[74.24882633654698,70.34967767781802],[73.92642583525362,70.15370834331988],[73.61045966596524,69.9572480607011],[73.30075576600639,69.76031681194934],[73.86715946951462,69.65319630737604],[73.55962047831983,69.45692653495348],[74.11614626607894,69.34903514963028],[73.81079374297306,69.1534180387404],[74.35775354279127,69.04478664377402],[74.66671520694645,69.2392923306596],[75.21132238583483,69.12773054363407],[75.52970589993411,69.3206141082006],[76.07165806084632,69.20612377834678],[76.60750224624891,69.0898735460196],[77.13724898104178,68.97189604654267],[77.66091272167381,68.85222368308989],[77.33018573505035,68.66393752786549],[76.80938928779315,68.78245374286173],[76.28265368163969,68.89927918897814],[75.7499673021964,69.01438211120566],[75.43423575344342,68.82211974471635],[74.89890183861456,68.9343433370023],[74.59229635935799,68.74047180462473],[74.29136217098426,68.54613465525881],[73.9959595141184,68.35135001276545],[74.52136183458165,68.24240135598049],[75.04136392627913,68.13172239316381],[74.74488129694222,67.93863314698699],[74.45367272692096,67.74509980645882],[74.1676133795778,67.55113939376025],[73.88658176691071,67.35676842445541],[73.61045966596521,67.16200292555014],[74.10985555689109,67.05483234268823],[73.83550084774309,66.86068577736242],[73.33913203589589,66.96685845287979],[73.07248693585296,66.771350107848],[72.81041544384634,66.5754925535375],[72.31560797344225,66.67806346368006],[72.06110613747323,66.48092187923382],[72.5528115767178,66.37930003021407],[72.29957221133282,66.18278637024453],[71.8109543003487,66.28347266502352],[71.31808813965173,66.38250171739767],[70.8209919741893,66.47984963662337],[70.5815292579389,66.28028582892945],[70.08359400619092,66.3750318637199],[70.31968691030964,66.57549255353749],[70.55996517182382,66.7756991220829],[71.06466407828577,66.67914581717773],[71.31264849478885,66.87816166782648],[71.81634684428693,66.77896147453554],[72.07208023799276,66.97673697396135],[72.3323594921677,67.17419136062193],[72.59729586864374,67.37131047239642],[72.86700384965687,67.56807971460697],[73.14160123226173,67.76448404354099],[73.42120922452686,67.96050794929376],[72.89727103094764,68.06560834155638],[73.17859010995917,68.26227211258414],[73.46516214265483,68.45853883299984],[73.75712089730241,68.65439177007885],[73.21735585472929,68.76085174205632],[72.67207822275878,68.86548420446725],[72.96223220437436,69.06305240100566],[72.40757543781842,69.16688712186955],[72.699472808055,69.3651179946252],[72.99714736124265,69.56293390368494],[72.42874122167757,69.66702458261422],[72.72825742231912,69.86551155760563],[72.14968169778317,69.96874701934097],[72.45099777093223,70.16791382361599],[72.75854060106003,70.36664770594214],[73.07248693585296,70.56492945678359],[72.47443162627712,70.66953772276439],[72.7904424794521,70.86850905794019],[72.18111108547724,70.97220813275209],[72.49913873104715,71.17187898183907],[71.87813975209865,71.27463010047884],[72.19812794850912,71.47501067263241],[72.52522574374433,71.67492012588889],[71.8869341924767,71.7778739574473],[72.21611155730749,71.97850470691316],[72.5528115767178,72.17864350206854],[72.89727103094764,72.37826753908264],[72.23514669930253,72.48267266588726],[72.58202920779716,72.68303127780536],[71.90609345593684,72.78639117032189],[71.22196677755446,72.8873875948757],[70.52969799053305,72.98597536850036],[70.20112364547508,72.78188360272166],[69.50740523012972,72.87680624603128],[69.19320898728877,72.67108974528246],[68.88649992163475,72.46498042066065],[68.58703052512826,72.25849798052215],[68.29456325389444,72.05166132413298],[68.96248897457819,71.96133725072879],[68.67053848472045,71.75525574887068],[68.38522105721376,71.54883346280823],[67.7297320799447,71.6369971622608],[67.45693899994212,71.42920377362421],[67.19028889612255,71.22112447442552],[66.92958775017536,71.01277469850106],[66.67464911902414,70.80416928765939],[67.30620505490765,70.72007278663885],[67.05106271907673,70.51219326006049],[66.80140948635182,70.3040673510753],[67.41614747934365,70.21966280141017],[67.16634582208246,70.0122519677062],[66.92177859395915,69.80460384840626],[66.68229161324494,69.59673166384064],[67.27589784825896,69.51297408325784],[67.86450812189965,69.4271021381024],[68.44806257795783,69.33914476117718],[68.19859051364818,69.13384349873084],[68.77234881136471,69.04478664377402],[68.52320902045962,68.84017651276221],[69.0874523086323,68.7500597110774],[68.83874018317172,68.54613465525881],[68.59482056988148,68.34195453055936],[68.03943597990354,68.43021276144292],[67.47943439710312,68.51649786743923],[67.71441235316725,68.72250716615085],[67.14518003822329,68.80768638993315],[66.5713071912546,68.89082492291173],[65.9928533731142,68.97189604654267],[65.40988283380399,69.05087330635159],[65.62987994612618,69.26020577188942],[65.03721016919299,69.33790882358554],[64.4400348281762,69.41344826954574],[63.838433557980764,69.48679791784977],[63.23249108070382,69.5579319722774],[62.62229722866828,69.62682506750377],[62.00794695540732,69.69345230465694],[61.38954033403479,69.75778928714435],[60.76718254247569,69.81981215664972],[60.140983835076916,69.87949762919695],[60.31281836080631,70.09570879380446],[59.67639313745001,70.15370834331988],[59.84545208208383,70.37056610846159],[59.19855402386317,70.42682263958602],[58.547938988000496,70.48062504534114],[58.3924977537511,70.2624657638357],[57.74528947313286,70.31318031671015],[57.0947570770121,70.36142447797462],[57.23611150941633,70.58078033100523],[57.38075692880719,70.80015572963036],[56.71247231108751,70.84703671236053],[56.853004167744004,71.06700830041571],[56.173838241814735,71.11187656648634],[56.30993247402022,71.33243494981943],[55.61965527615514,71.3752234469517],[55.75096699318805,71.59635790575895],[55.885527054658745,71.81752796195325],[55.17551084304321,71.85869552492589],[55.30484646876604,72.08043691682774],[55.43747535111819,72.30221629666518],[55.573523418560924,72.52402844007487],[55.713123022791045,72.74586792829419],[55.85641334806225,72.96772913594457],[56.611486423888486,72.92371915437933],[56.76828893202065,73.14498397029492],[56.92932217723833,73.36624266338212],[57.09475707701211,73.5874882794929],[57.87500155961248,73.5385769104039],[58.05524722379661,73.75910081626118],[58.240519915187214,73.97957804069216],[58.431028870681665,74.19999991738733],[58.626994859891546,74.42035737662309],[59.44403572449223,74.36537849735645],[59.65675111576043,74.58483908435572],[59.8756820016388,74.80419282372273],[60.101098161385444,75.02342830463489],[60.94539590092286,74.96267575281874],[61.189206257026946,75.18084334801236],[61.44037952168018,75.39884120594189],[62.300527191945015,75.33290939564655],[62.57125877832243,75.54968786980524],[63.43494882292202,75.47944896138915],[63.72578784527257,75.69489140195924],[64.59228189105153,75.62028399422705],[64.90374953730785,75.83426925227523],[65.77225468204583,75.75523655270442],[66.10483858492964,75.96763917004085],[66.44773632710536,76.1796519298421],[67.32865637801915,76.09481999590805],[67.69379494509236,76.3050584467729],[68.57470620191262,76.21563251751064],[68.96248897457819,76.42395894985022],[69.36245301531218,76.63173611622518],[68.45902408146156,76.72406717509085],[68.86017519134235,76.93277728399495],[67.9321004375898,77.02328697282857],[66.99112991717713,77.11038754335314],[67.38013505195958,77.32153666178844],[66.41296947487176,77.40660292209779],[66.80140948635182,77.61872737963185],[65.80679101271124,77.70164586521898],[66.19405648154229,77.91476227488562],[65.1706534118504,77.99541132463676],[65.55604521958347,78.20953559453505],[65.95577673063218,78.42318949786507],[64.88516511385545,78.5029316527661],[65.2825590889166,78.7176274108909],[64.17900802581072,78.79482366437166],[64.5731258304102,79.01057680047859],[64.98310652189998,79.22586710398022],[63.82471001824007,79.3018967483949],[64.23067237566129,79.51828193115708],[63.034285567129864,79.5914318688959],[63.43494882292201,79.80892582403638],[62.19854122006586,79.87901049296885],[62.59242456218159,80.09762425362683],[63.00416160591339,80.31582040361008],[61.69924423399363,80.38418348697498],[62.102728969052386,80.60353887928312],[62.52556837372287,80.82247416654164],[63.8860873697093,80.75081353944188],[64.35899417569472,80.96752915016259],[65.72555886556054,80.8889079828782],[66.25050550713325,81.10310207515145],[67.61986494804043,81.01739007493805],[68.96248897457819,80.92667621026688],[69.56717132060132,81.13583371318606],[70.90650799951439,81.03800295215976],[71.56505117707799,81.24382405123498],[72.25532837494308,81.44849116817267],[73.61045966596521,81.3409631758693],[74.9315118405078,81.22874468006785],[76.21840276434638,81.11201674689208],[77.0053832080835,81.30744734710495],[77.82854179141253,81.50121701457616],[79.11447294534128,81.3746111519391],[80.36246188706906,81.24382405123498],[81.2538377374448,81.42996059409278],[82.18470645323312,81.61398152760859],[83.15722658736905,81.79573862685452],[84.40066066347944,81.651912894492],[85.42607874009914,81.82804825266692],[86.6335393365702,81.67729782705024],[87.79740183823421,81.52302433088961],[88.9190758133393,81.36542123756185]],[[70.86635679409451,73.18960621785567],[71.56505117707799,73.0897637777669],[71.91655461695134,73.29162929891584],[71.21137801783154,73.39275301278857],[70.4975514933378,73.49138863518928],[70.15930191603165,73.28697762841128],[69.82934658814962,73.08210936114635],[70.52969799053305,72.98597536850036],[70.86635679409451,73.18960621785567]],[[80.70669140060288,80.92376529214546],[79.50852298766841,81.05570953675219],[78.69006752597979,80.86574487020096],[79.87532834460218,80.73654903999994],[80.70669140060288,80.92376529214546]],[[74.35775354279127,73.1711266894308],[73.97970769792877,72.97380891690771],[74.64986350757559,72.86321180879446],[75.03328043599515,73.05916803062567],[74.35775354279127,73.1711266894308]],[[79.54836705601132,73.02863055045817],[78.90627698844216,73.15574343124202],[78.47627829610266,72.96772913594457],[79.11447294534128,72.84208755213824],[79.54836705601132,73.02863055045817]]],[[[93.57633437499736,79.56362369700342],[92.72631099390627,79.73419337649143],[93.69138598645128,79.88682826396983],[94.53777250790667,79.71367503182594],[93.57633437499736,79.56362369700342]]],[[[83.55046529615772,71.2760041895517],[83.11827636936306,71.09962845794709],[82.69424046668917,70.92230330165323],[82.14668669802178,71.0588626585088],[82.56859202882748,71.23757036519153],[82.99873244250468,71.415346697601],[83.55046529615772,71.2760041895517]]],[[[81.86989764584402,70.56492945678359],[82.27817419986904,70.74406014380094],[82.81573260757315,70.60722939088232],[83.34557495399342,70.4688011072637],[82.93327028359893,70.2923573469808],[82.52844082340764,70.1150217134892],[82.00252652819617,70.25078231904793],[82.40535663140855,70.42944345671538],[81.86989764584402,70.56492945678359]]],[[[77.19573393471325,68.16777120022643],[77.51751061504552,68.35604942533514],[77.0053832080835,68.47508117306019],[77.33018573505035,68.66393752786549],[77.84505830277779,68.54376206829902],[78.35402575151677,68.42195863935198],[78.02386755579664,68.23539288493797],[77.69946112100192,68.04824614664112],[77.19573393471325,68.16777120022643]]],[[[77.56043798115344,67.55339729077465],[77.87626175221061,67.74054150333846],[78.36636600105957,67.61898529337985],[78.04812486997523,67.43294874945731],[77.56043798115344,67.55339729077465]]]]}},{"type":"Feature","properties":{"id":"chukchi","name":"楚科奇海","mask_value":12,"grid_cells":1312,"definition":"NSIDC Meier et al. 2007 sea-ice region mask; 25 km cells"},"geometry":{"type":"MultiPolygon","coordinates":[[[[-163.78661831001403,66.36543161971781],[-164.05460409907712,66.55934262533802],[-164.5387822595581,66.45091956824564],[-164.81416273779868,66.64345749429924],[-165.29644817623844,66.532453469296],[-165.77403610124819,66.4198904158304],[-166.24692941347695,66.30579386070731],[-166.71513351509782,66.19018919883361],[-167.1786562066011,66.07310167995288],[-166.89079180184572,65.88561796633789],[-167.34744349944202,65.76809483806156],[-167.79953127261922,65.64914161888343],[-168.24706774933586,65.52878263946472],[-168.5412476541228,65.71319204437552],[-168.9861671096486,65.59042227054198],[-169.28687697720898,65.77328152124817],[-169.72899627952094,65.64811009037841],[-170.03619581009283,65.829376899957],[-170.47533202821,65.70181448970527],[-170.78897345918335,65.88144694270166],[-170.34816653319575,66.01007599698897],[-169.90249561592472,66.13736791244682],[-170.21759296819272,66.31855933052154],[-170.53767779197437,66.4991583111082],[-170.8628489858613,66.67914581717773],[-171.31364541876334,66.54858285901825],[-171.64564916462032,66.72682458653648],[-171.98290692634467,66.90440293120744],[-172.32552048310606,67.08129726681769],[-172.77568430595468,66.94601916081272],[-173.12518197129575,67.12105804288231],[-173.57125225117014,66.98332525801582],[-173.92754359279232,67.15646509998615],[-174.36931724236476,67.01629798584018],[-174.73230287195577,67.1874960305124],[-175.10090754621223,67.35788667824094],[-175.47523152716582,67.52744654016396],[-175.0302592718897,67.67115400204176],[-175.40945681439396,67.84106205188641],[-175.85537625889572,67.69615166289502],[-176.24144431452802,67.86397751642016],[-176.63353933657018,68.03089898203687],[-177.0317659701283,68.19689034036944],[-177.436229788535,68.36192525949983],[-177.84703721089954,68.52597678325616],[-178.29018595585848,68.37368216142617],[-178.70783311375007,68.53546026741319],[-179.13194855025446,68.69618888561182],[-178.6881122174959,68.85101862989778],[-179.11859600341788,69.0119518169259],[-178.66778014613035,69.16688712186955],[-178.21008939175394,69.3206141082006],[-178.64680804622031,69.48306141840214],[-178.18169703554818,69.63686689714265],[-178.62516521943058,69.79953716167024],[-178.1523897340054,69.95341665652587],[-178.60281897270363,70.11630996058949],[-178.12212255271464,70.2702588666437],[-178.57973445360096,70.43337539039744],[-178.09084756700364,70.58738896643324],[-177.5940294833547,70.74006002424716],[-178.05851360908562,70.90480235232421],[-177.5529513576764,71.0575054161673],[-178.02506598911802,71.22249437694343],[-177.51044707800085,71.3752234469517],[-177.99044618697886,71.54046034765649],[-177.46644111160543,71.6932092074989],[-177.9545915111128,71.85869552492589],[-177.42085249971657,72.01145772703],[-176.8778695378843,72.1627181776032],[-177.37359436170925,72.32996396985828],[-176.82016988013575,72.48119758839816],[-177.32457334397085,72.64872283176724],[-176.76029970389789,72.79992137440111],[-177.27368900609375,72.96772913594457],[-176.698134325565,73.11888399636483],[-177.22083313592793,73.28697762841128],[-176.63353933657018,73.43807981010195],[-177.1658889836935,73.60646297287558],[-176.56636963754949,73.75750305851601],[-175.9555144258189,73.90680833535136],[-176.49646835521557,74.0771478626261],[-175.87240829748828,74.2263383145224],[-176.42366562500266,74.39700821143957],[-175.78582147726596,74.54607159551597],[-176.34777721969368,74.71707795050128],[-175.695531039492,74.86600136115538],[-176.26860300083956,75.03735076891955],[-175.6012946450045,75.18612057978062],[-174.92039213998544,75.33290939564655],[-175.50284838533221,75.50642198390003],[-174.8055710922652,75.65298876161944],[-175.39990433373674,75.82689804588443],[-174.68545433005525,75.97322484320723],[-175.29214775562778,76.14754095022155],[-174.5596679689945,76.29360868041361],[-175.17923392190735,76.46834256175777],[-174.4278021960362,76.61413088144145],[-173.6598082540901,76.75762756970661],[-174.28940686250036,76.93478157206496],[-173.50065372034544,77.07790719556196],[-174.14398641457106,77.25555033729295],[-173.33334010909863,77.39827770547899],[-173.99099404250546,77.57642615393131],[-173.15722658736905,77.71872604648436],[-173.8298249049704,77.89739731235905],[-172.9716037610504,78.03923825536864],[-172.09283729704154,78.17838492899668],[-172.77568430595468,78.35979933597001],[-171.86989764584402,78.4983596766981],[-172.56859202882748,78.68039311563176],[-171.63411387596742,78.8183242910921],[-172.3493490446406,79.00100207663063],[-171.38435181583588,79.13825751851238],[-172.11686068327026,79.32160715734771],[-171.11934084947976,79.45813609410779],[-170.0958167870261,79.5914318688959],[-169.38034472384487,79.40330878200399],[-168.34070734647702,79.53085674652193],[-167.6609127216738,79.3388843261378],[-166.6075022462489,79.46063516966798],[-165.96375653207352,79.26503945493096],[-164.89890183861456,79.38096279971423],[-164.29136217098426,79.1819715920984],[-163.21735585472928,79.29205545353805],[-162.6459753637387,79.08989647057517],[-161.565051177078,79.19414649568814],[-161.02959219151347,78.98904565693712],[-159.94390526342457,79.0874841745716],[-159.44395478041653,78.87966404507063],[-158.355564859286,78.97232896395273],[-157.89055165624833,78.76200737291302],[-156.80140948635182,78.84895096435531],[-155.6954507340633,78.93183889165785],[-155.2825590889166,78.7176274108909],[-154.88516511385544,78.5029316527661],[-155.9557767306322,78.42318949786507],[-155.55604521958347,78.20953559453505],[-155.17065341185042,77.99541132463676],[-154.79887635452494,77.78084776371182],[-155.80679101271124,77.70164586521898],[-155.43282867939868,77.4880731105169],[-155.07152586453876,77.27407331333922],[-154.72227776444706,77.05967399622489],[-155.6744247608739,76.98096821054479],[-155.32313682966296,76.76751503094032],[-154.9831065219,76.5536732527872],[-154.65382405805332,76.33946744643012],[-155.55604521958347,76.2612214023318],[-155.22485943116806,76.04792241847817],[-154.90374953730785,75.83426925227523],[-154.59228189105153,75.62028399422705],[-155.4495476107926,75.54246752762951],[-155.13630342824814,75.32935431002569],[-154.8321298502184,75.11591796294087],[-154.53665493812838,74.90217847341053],[-155.35322914806883,74.82476643428328],[-155.05609473657543,74.61186807193936],[-154.76716867679164,74.39867479471437],[-154.48612957246576,74.1852047896839],[-155.2656974709475,74.10817611965312],[-154.9831065219,73.89551965425345],[-154.70797884297872,73.68259407042972],[-154.44003482817618,73.46941600270164],[-155.18580300946485,73.39275301278857],[-154.9164059938091,73.18036377445597],[-154.65382405805332,72.96772913594457],[-154.39781244855823,72.75486438286387],[-155.1125882890755,72.67855218135033],[-154.85521436932106,72.46645405131903],[-154.60408815082943,72.25413243897395],[-154.3589941756947,72.04160145013272],[-155.04524942542102,71.96562748454274],[-154.79887635452494,71.75384310278591],[-154.55825153699746,71.54185558536567],[-155.22485943116806,71.46528395594285],[-154.9831065219,71.25403168677046],[-154.74683660542613,71.04258261765267],[-155.39487608204837,70.96545604304244],[-155.63754698468782,71.17597750907672],[-155.88580146069305,71.38628270163326],[-156.54097591853844,71.30488500349561],[-157.19028889612255,71.22112447442552],[-156.92958775017536,71.01277469850106],[-157.56700907787462,70.92769167221641],[-158.19859051364818,70.84033189625967],[-158.82426058289542,70.75072899216838],[-159.10223450116115,70.9560074267364],[-159.72731438669013,70.86313854950299],[-159.44395478041653,70.6589168246132],[-160.05761541830302,70.56492945678359],[-160.6651914621736,70.46880110726372],[-161.2666383570831,70.37056610846159],[-161.86191784440268,70.2702588666437],[-162.45099777093222,70.16791382361599],[-163.03385189146383,70.06356542008224],[-162.72825742231913,69.86551155760563],[-163.3007557660064,69.76031681194934],[-162.99714736124264,69.56293390368494],[-163.55962047831983,69.45692653495348],[-163.25802961470689,69.26020577188942],[-163.81079374297306,69.1534180387404],[-164.35775354279127,69.04478664377402],[-164.89890183861456,68.9343433370023],[-165.43423575344343,68.82211974471635],[-165.7499673021964,69.01438211120566],[-166.2826536816397,68.89927918897814],[-165.96375653207352,68.7081473457492],[-166.48746936421398,68.59245744912297],[-166.17134902771986,68.40192725753803],[-165.8608916883495,68.2108826537707],[-165.55596427550776,68.0193425381518],[-165.25643716352928,67.82732524616553],[-164.74488129694222,67.93863314698699],[-164.45367272692096,67.74509980645882],[-164.1676133795778,67.55113939376025],[-163.88658176691072,67.35676842445541],[-163.6104596659652,67.16200292555014],[-163.3391320358959,66.96685845287979],[-162.8380811971347,67.0713689670287],[-162.5745639596944,66.87488382554437],[-162.31560797344227,66.67806346368006],[-162.06110613747325,66.48092187923382],[-161.565051177078,66.58087860773176],[-161.31808813965173,66.38250171739767],[-161.8109543003487,66.28347266502352],[-161.565051177078,66.08572902336948],[-162.05059700708614,65.98596501244882],[-162.29957221133282,66.18278637024453],[-162.78392641220927,66.08046672803083],[-163.26400414852395,65.97653762088648],[-163.52311860631204,66.1711585240604],[-163.78661831001403,66.36543161971781]]],[[[-174.52263127117112,66.39210967294838],[-174.87683446287187,66.5625716236282],[-174.4470289669632,66.70405532590628],[-174.8055710922652,66.87488382554437],[-174.36931724236476,67.01629798584018],[-174.0118516242245,66.84431538067362],[-173.6598082540901,66.67157051114236],[-174.0938588862295,66.532453469296],[-174.52263127117112,66.39210967294838]]]]}}]}